Country,Name,Address,City,State/Province,PostalCode
USA,Alice,123 Main St,Seattle,Washington,98052
USA,Alice,123 Main St,Seattle,Washington,98052
USA,Alice,123 Main St,Seattle,Washington,98052
USA,Alice,123 Main St,Seattle,Washington,98052
USA,Alice,123 Main St,Seattle,Washington,98052
USA,Alice,123 Main St,Seattle,Washington,98052
USA,Alice,123 Main St,Seattle,Washington,98052
USA,Alice,123 Main St,Seattle,Washington,98052
USA,Alice,123 Main St,Seattle,Washington,98052
USA,Alice,123 Main St,Seattle,Washington,98052
USA,Alice,123 Main St,Seattle,Washington,98052
USA,Alice,123 Main St,Seattle,Washington,98052
USA,Alice,123 Main St,Seattle,Washington,98052
USA,Alice,123 Main St,Seattle,Washington,98052
USA,Alice,123 Main St,Seattle,Washington,98052
USA,Alice,123 Main St,Seattle,Washington,98052
USA,Alice,123 Main St,Seattle,Washington,98052
USA,Alice,123 Main St,Seattle,Washington,98052
USA,Alice,123 Main St,Seattle,Washington,98052
USA,Alice,123 Main St,Seattle,Washington,98052
USA,Alice,123 Main St,Seattle,Washington,98052
USA,Alice,123 Main St,Seattle,Washington,98052
USA,Alice,123 Main St,Seattle,Washington,98052
USA,Alice,123 Main St,Seattle,Washington,98052
USA,Alice,123 Main St,Seattle,Washington,98052
USA,Alice,123 Main St,Seattle,Washington,98052
USA,Alice,123 Main St,Seattle,Washington,98052
USA,Alice,123 Main St,Seattle,Washington,98052
USA,Bob,456 Main Ave,Bothell,Washington,98052
USA,Ciara,101 First St,Redmond,Washington,98052
USA,Den,201 Second St,Redmond,Washington,98052
USA,Elan,301 Third St,Redmond,Washington,98052
USA,Phuong,401 First St,Redmond,Washington,98052
USA,Blaik,501 Second St,Redmond,Washington,98052
USA,Shia,601 Third St,Redmond,Washington,98052
USA,Shipra,701 First St,Redmond,Washington,98052
USA,Priya,801 Second St,Redmond,Washington,98052
USA,Laharika,901 Third St,Redmond,Washington,98052
USA,Krishna,111 First St,Redmond,Washington,98052
USA,Shin,222 Second St,Redmond,Washington,98052
USA,AB,333 Third St,Redmond,Washington,98052
Canada,XYZ,444 Third St,Redmond,Washington,98052
Canada,Shipra,1000 First St,Vacouver,British Columbia,98000
Canada,Shipraxyz,1000 First St,Vacouver,British Columbia,98000